{"type": "FeatureCollection", "features": [ {"type": "Feature", "properties": {"norad_id": 66837, "name": "STARLINK-35729", "group": "last-30-days", "lat": -50.69212203151059, "lon": 153.12470023394977, "alt_km": 413.544538450682, "timestamp": "2025-12-19T14:48:34.965234+00:00", "meta": {"OBJECT_NAME": "STARLINK-35729", "OBJECT_ID": "2025-280S", "EPOCH": "2025-12-19T06:00:02.000160", "MEAN_MOTION": 15.54536502, "ECCENTRICITY": 0.0003967, "INCLINATION": 69.999, "RA_OF_ASC_NODE": 180.5483, "ARG_OF_PERICENTER": 273.9009, "MEAN_ANOMALY": 138.5259, "EPHEMERIS_TYPE": 0, "CLASSIFICATION_TYPE": "U", "NORAD_CAT_ID": 66837, "ELEMENT_SET_NO": 999, "REV_AT_EPOCH": 394, "BSTAR": -0.04221314, "MEAN_MOTION_DOT": -0.02438184, "MEAN_MOTION_DDOT": 0}, "tle": {"line1": "1 66837U 25280S   25353.25002315 -.02438184  00000+0 -42213-1 0  9997", "line2": "2 66837  69.9990 180.5483 0003967 273.9009 138.5259 15.54536502  3943"}}, "geometry": {"type": "Point", "coordinates": [153.12470023394977, -50.69212203151059]}}, {"type": "Feature", "properties": {"norad_id": 66838, "name": "STARLINK-35886", "group": "last-30-days", "lat": -47.433989144245594, "lon": 156.17188173520412, "alt_km": 413.74345808223916, "timestamp": "2025-12-19T14:48:34.965244+00:00", "meta": {"OBJECT_NAME": "STARLINK-35886", "OBJECT_ID": "2025-280T", "EPOCH": "2025-12-19T06:00:02.000160", "MEAN_MOTION": 15.54525438, "ECCENTRICITY": 0.00036373, "INCLINATION": 69.9991, "RA_OF_ASC_NODE": 180.5435, "ARG_OF_PERICENTER": 273.161, "MEAN_ANOMALY": 143.1002, "EPHEMERIS_TYPE": 0, "CLASSIFICATION_TYPE": "U", "NORAD_CAT_ID": 66838, "ELEMENT_SET_NO": 999, "REV_AT_EPOCH": 394, "BSTAR": -0.041961017, "MEAN_MOTION_DOT": -0.02424283, "MEAN_MOTION_DDOT": 0}, "tle": {"line1": "1 66838U 25280T   25353.25002315 -.02424283  00000+0 -41961-1 0  9992", "line2": "2 66838  69.9991 180.5435 0003637 273.1610 143.1002 15.54525438  3940"}}, "geometry": {"type": "Point", "coordinates": [156.17188173520412, -47.433989144245594]}}, {"type": "Feature", "properties": {"norad_id": 66839, "name": "STARLINK-35717", "group": "last-30-days", "lat": -49.070460409996606, "lon": 154.70123079337176, "alt_km": 413.78269571543024, "timestamp": "2025-12-19T14:48:34.965254+00:00", "meta": {"OBJECT_NAME": "STARLINK-35717", "OBJECT_ID": "2025-280U", "EPOCH": "2025-12-19T06:00:02.000160", "MEAN_MOTION": 15.54545453, "ECCENTRICITY": 0.00037317, "INCLINATION": 69.9994, "RA_OF_ASC_NODE": 180.5458, "ARG_OF_PERICENTER": 270.8872, "MEAN_ANOMALY": 143.4546, "EPHEMERIS_TYPE": 0, "CLASSIFICATION_TYPE": "U", "NORAD_CAT_ID": 66839, "ELEMENT_SET_NO": 999, "REV_AT_EPOCH": 394, "BSTAR": -0.0425525, "MEAN_MOTION_DOT": -0.02455645, "MEAN_MOTION_DDOT": 0}, "tle": {"line1": "1 66839U 25280U   25353.25002315 -.02455645  00000+0 -42552-1 0  9996", "line2": "2 66839  69.9994 180.5458 0003731 270.8872 143.4546 15.54545453  3943"}}, "geometry": {"type": "Point", "coordinates": [154.70123079337176, -49.070460409996606]}}, {"type": "Feature", "properties": {"norad_id": 66840, "name": "STARLINK-35837", "group": "last-30-days", "lat": -45.77247658080303, "lon": 157.56004483253335, "alt_km": 413.7436533183618, "timestamp": "2025-12-19T14:48:34.965264+00:00", "meta": {"OBJECT_NAME": "STARLINK-35837", "OBJECT_ID": "2025-280V", "EPOCH": "2025-12-19T06:00:02.000160", "MEAN_MOTION": 15.54533008, "ECCENTRICITY": 0.00036391, "INCLINATION": 69.9992, "RA_OF_ASC_NODE": 180.5416, "ARG_OF_PERICENTER": 273.2308, "MEAN_ANOMALY": 144.9465, "EPHEMERIS_TYPE": 0, "CLASSIFICATION_TYPE": "U", "NORAD_CAT_ID": 66840, "ELEMENT_SET_NO": 999, "REV_AT_EPOCH": 394, "BSTAR": -0.042199097, "MEAN_MOTION_DOT": -0.02436839, "MEAN_MOTION_DDOT": 0}, "tle": {"line1": "1 66840U 25280V   25353.25002315 -.02436839  00000+0 -42199-1 0  9999", "line2": "2 66840  69.9992 180.5416 0003639 273.2308 144.9465 15.54533008  3944"}}, "geometry": {"type": "Point", "coordinates": [157.56004483253335, -45.77247658080303]}}, {"type": "Feature", "properties": {"norad_id": 66841, "name": "STARLINK-35715", "group": "last-30-days", "lat": -44.09402582217997, "lon": 158.86808140192798, "alt_km": 413.8025531491576, "timestamp": "2025-12-19T14:48:34.965276+00:00", "meta": {"OBJECT_NAME": "STARLINK-35715", "OBJECT_ID": "2025-280W", "EPOCH": "2025-12-19T06:00:02.000160", "MEAN_MOTION": 15.54546511, "ECCENTRICITY": 0.0003612, "INCLINATION": 69.9993, "RA_OF_ASC_NODE": 180.5396, "ARG_OF_PERICENTER": 271.7466, "MEAN_ANOMALY": 148.3435, "EPHEMERIS_TYPE": 0, "CLASSIFICATION_TYPE": "U", "NORAD_CAT_ID": 66841, "ELEMENT_SET_NO": 999, "REV_AT_EPOCH": 394, "BSTAR": -0.042561847, "MEAN_MOTION_DOT": -0.02456063, "MEAN_MOTION_DDOT": 0}, "tle": {"line1": "1 66841U 25280W   25353.25002315 -.02456063  00000+0 -42562-1 0  9995", "line2": "2 66841  69.9993 180.5396 0003612 271.7466 148.3435 15.54546511  3940"}}, "geometry": {"type": "Point", "coordinates": [158.86808140192798, -44.09402582217997]}}, {"type": "Feature", "properties": {"norad_id": 66842, "name": "STARLINK-35769", "group": "last-30-days", "lat": -42.40834069661583, "lon": 160.09855275952805, "alt_km": 413.67777862549974, "timestamp": "2025-12-19T14:48:34.965289+00:00", "meta": {"OBJECT_NAME": "STARLINK-35769", "OBJECT_ID": "2025-280X", "EPOCH": "2025-12-19T06:00:02.000160", "MEAN_MOTION": 15.54530801, "ECCENTRICITY": 0.00036572, "INCLINATION": 69.9997, "RA_OF_ASC_NODE": 180.5372, "ARG_OF_PERICENTER": 274.0505, "MEAN_ANOMALY": 147.9588, "EPHEMERIS_TYPE": 0, "CLASSIFICATION_TYPE": "U", "NORAD_CAT_ID": 66842, "ELEMENT_SET_NO": 999, "REV_AT_EPOCH": 394, "BSTAR": -0.042116957, "MEAN_MOTION_DOT": -0.02432561, "MEAN_MOTION_DDOT": 0}, "tle": {"line1": "1 66842U 25280X   25353.25002315 -.02432561  00000+0 -42117-1 0  9999", "line2": "2 66842  69.9997 180.5372 0003657 274.0505 147.9588 15.54530801  3947"}}, "geometry": {"type": "Point", "coordinates": [160.09855275952805, -42.40834069661583]}}, {"type": "Feature", "properties": {"norad_id": 66843, "name": "STARLINK-35997", "group": "last-30-days", "lat": -38.988250479753525, "lon": 162.37773254831603, "alt_km": 413.76831897226566, "timestamp": "2025-12-19T14:48:34.965299+00:00", "meta": {"OBJECT_NAME": "STARLINK-35997", "OBJECT_ID": "2025-280Y", "EPOCH": "2025-12-19T06:00:02.000160", "MEAN_MOTION": 15.54550823, "ECCENTRICITY": 0.00035405, "INCLINATION": 69.9995, "RA_OF_ASC_NODE": 180.5317, "ARG_OF_PERICENTER": 272.474, "MEAN_ANOMALY": 153.3644, "EPHEMERIS_TYPE": 0, "CLASSIFICATION_TYPE": "U", "NORAD_CAT_ID": 66843, "ELEMENT_SET_NO": 999, "REV_AT_EPOCH": 394, "BSTAR": -0.042694556, "MEAN_MOTION_DOT": -0.02462969, "MEAN_MOTION_DDOT": 0}, "tle": {"line1": "1 66843U 25280Y   25353.25002315 -.02462969  00000+0 -42695-1 0  9996", "line2": "2 66843  69.9995 180.5317 0003540 272.4740 153.3644 15.54550823  3949"}}, "geometry": {"type": "Point", "coordinates": [162.37773254831603, -38.988250479753525]}}, {"type": "Feature", "properties": {"norad_id": 66844, "name": "STARLINK-36073", "group": "last-30-days", "lat": -40.70293035215188, "lon": 161.26827935694496, "alt_km": 413.7308671298533, "timestamp": "2025-12-19T14:48:34.965309+00:00", "meta": {"OBJECT_NAME": "STARLINK-36073", "OBJECT_ID": "2025-280Z", "EPOCH": "2025-12-19T06:00:02.000160", "MEAN_MOTION": 15.54543971, "ECCENTRICITY": 0.00035784, "INCLINATION": 69.9995, "RA_OF_ASC_NODE": 180.5347, "ARG_OF_PERICENTER": 273.5876, "MEAN_ANOMALY": 150.3367, "EPHEMERIS_TYPE": 0, "CLASSIFICATION_TYPE": "U", "NORAD_CAT_ID": 66844, "ELEMENT_SET_NO": 999, "REV_AT_EPOCH": 394, "BSTAR": -0.04250595, "MEAN_MOTION_DOT": -0.02453025, "MEAN_MOTION_DDOT": 0}, "tle": {"line1": "1 66844U 25280Z   25353.25002315 -.02453025  00000+0 -42506-1 0  9991", "line2": "2 66844  69.9995 180.5347 0003578 273.5876 150.3367 15.54543971  3941"}}, "geometry": {"type": "Point", "coordinates": [161.26827935694496, -40.70293035215188]}}, {"type": "Feature", "properties": {"norad_id": 66845, "name": "STARLINK-36068", "group": "last-30-days", "lat": -33.79231985864106, "lon": 165.40927043371696, "alt_km": 413.55123026294314, "timestamp": "2025-12-19T14:48:34.965320+00:00", "meta": {"OBJECT_NAME": "STARLINK-36068", "OBJECT_ID": "2025-280AA", "EPOCH": "2025-12-19T06:00:02.000160", "MEAN_MOTION": 15.54540702, "ECCENTRICITY": 0.00036102, "INCLINATION": 69.9994, "RA_OF_ASC_NODE": 180.5248, "ARG_OF_PERICENTER": 274.7782, "MEAN_ANOMALY": 156.8113, "EPHEMERIS_TYPE": 0, "CLASSIFICATION_TYPE": "U", "NORAD_CAT_ID": 66845, "ELEMENT_SET_NO": 999, "REV_AT_EPOCH": 394, "BSTAR": -0.04240723, "MEAN_MOTION_DOT": -0.02447854, "MEAN_MOTION_DDOT": 0}, "tle": {"line1": "1 66845U 25280AA  25353.25002315 -.02447854  00000+0 -42407-1 0  9995", "line2": "2 66845  69.9994 180.5248 0003610 274.7782 156.8113 15.54540702  3946"}}, "geometry": {"type": "Point", "coordinates": [165.40927043371696, -33.79231985864106]}}, {"type": "Feature", "properties": {"norad_id": 66846, "name": "STARLINK-36055", "group": "last-30-days", "lat": -37.26675511997976, "lon": 163.4331779234271, "alt_km": 413.63249958541473, "timestamp": "2025-12-19T14:48:34.965333+00:00", "meta": {"OBJECT_NAME": "STARLINK-36055", "OBJECT_ID": "2025-280AB", "EPOCH": "2025-12-19T06:00:02.000160", "MEAN_MOTION": 15.5453566, "ECCENTRICITY": 0.00036531, "INCLINATION": 69.9993, "RA_OF_ASC_NODE": 180.5296, "ARG_OF_PERICENTER": 273.6445, "MEAN_ANOMALY": 154.1135, "EPHEMERIS_TYPE": 0, "CLASSIFICATION_TYPE": "U", "NORAD_CAT_ID": 66846, "ELEMENT_SET_NO": 999, "REV_AT_EPOCH": 394, "BSTAR": -0.042272555, "MEAN_MOTION_DOT": -0.0244075, "MEAN_MOTION_DDOT": 0}, "tle": {"line1": "1 66846U 25280AB  25353.25002315 -.02440750  00000+0 -42273-1 0  9995", "line2": "2 66846  69.9993 180.5296 0003653 273.6445 154.1135 15.54535660  3942"}}, "geometry": {"type": "Point", "coordinates": [163.4331779234271, -37.26675511997976]}}]}